ONEWEB-0271             
1 48989U 21060Y   25283.21684811  .00000038  00000+0  65537-4 0  9998
2 48989  87.8968 278.5713 0001678  96.8410 263.2912 13.16592728206770
ONEWEB-0272             
1 48990U 21060Z   25283.23901374 -.00000056  00000+0 -17933-3 0  9996
2 48990  87.8962 278.5922 0001617  92.4586 267.6730 13.16594401206728
ONEWEB-0273             
1 48991U 21060AA  25282.50120307  .00000037  00000+0  63836-4 0  9996
2 48991  87.8969 278.7298 0001914  96.2204 263.9145 13.16597059206601
ONEWEB-0274             
1 48992U 21060AB  25283.28651731  .00000102  00000+0  23189-3 0  9992
2 48992  87.8955 278.6022 0001514  84.3147 275.8157 13.16593520206740
ONEWEB-0275             
1 48993U 21060AC  25283.27543522  .00000105  00000+0  24080-3 0  9994
2 48993  87.8965 278.5693 0001798  91.2382 268.8955 13.16594044206679
ONEWEB-0276             
1 48994U 21060AD  25283.23267634  .00000065  00000+0  13573-3 0  9998
2 48994  87.8974 278.5756 0002042  94.3418 265.7947 13.16594090206686
ONEWEB-0277             
1 48995U 21060AE  25283.24536819 -.00000002  00000+0 -39289-4 0  9990
2 48995  87.8958 278.6044 0001646  92.6570 267.4749 13.16592275206670
ONEWEB-0278             
1 48996U 21060AF  25283.23585044 -.00000002  00000+0 -39082-4 0  9995
2 48996  87.8973 278.5719 0002152  89.2647 270.8730 13.16594338206801
ONEWEB-0279             
1 48997U 21060AG  25283.24375303 -.00000047  00000+0 -15678-3 0  9995
2 48997  87.8975 278.5656 0001659  96.7205 263.4114 13.16595807206736
ONEWEB-0280             
1 48998U 21060AH  25283.25879775 -.00000111  00000+0 -32492-3 0  9994
2 48998  87.8974 278.5706 0002198  97.1527 262.9854 13.16592283206676
ONEWEB-0281             
1 48999U 21060AJ  25283.03635649 -.00000049  00000+0 -16222-3 0  9994
2 48999  87.8967 278.6118 0001791  87.1975 272.9361 13.16596014206716
ONEWEB-0282             
1 49000U 21060AK  25283.21843230  .00000027  00000+0  37086-4 0  9991
2 49000  87.8965 278.5861 0001828  94.1661 265.9679 13.16592563206712
ONEWEB-0283             
1 49001U 21060AL  25283.28334496  .00000148  00000+0  35462-3 0  9997
2 49001  87.8961 278.5740 0001755  93.8249 266.3083 13.16593052206732
ONEWEB-0284             
1 49002U 21060AM  25283.27700507  .00000150  00000+0  35830-3 0  9999
2 49002  87.8976 278.5593 0002255  93.5161 266.6228 13.16592019206715
ONEWEB-0285             
1 49075U 21075A   25282.39251488  .00000467  00000+0  12628-2 0  9996
2 49075  87.8950  40.4790 0001756 100.8123 259.3203 13.12443231202318
ONEWEB-0286             
1 49076U 21075B   25283.28923633 -.00000217  00000+0 -63959-3 0  9993
2 49076  87.8948  40.3363 0001689  93.7216 266.4106 13.12442135201782
ONEWEB-0287             
1 49077U 21075C   25283.33664919  .00000070  00000+0  14734-3 0  9991
2 49077  87.9097  55.5486 0001793  87.5641 272.5696 13.17650165200726
ONEWEB-0288             
1 49078U 21075D   25283.26504336 -.00000044  00000+0 -15796-3 0  9992
2 49078  87.8953  40.3005 0001850  98.2770 261.8569 13.12442633202403
ONEWEB-0289             
1 49079U 21075E   25282.31221668  .00000024  00000+0  28573-4 0  9996
2 49079  87.9084  55.7749 0002058 103.7864 256.3497 13.17647119201164
ONEWEB-0290             
1 49080U 21075F   25282.81692376  .00000054  00000+0  10591-3 0  9994
2 49080  87.9094  55.6311 0002097 112.2971 247.8383 13.17649413200648
ONEWEB-0291             
1 49081U 21075G   25283.33329077  .00000083  00000+0  18144-3 0  9992
2 49081  87.9098  55.5336 0002038  92.5966 267.5399 13.17649787200705
ONEWEB-0293             
1 49082U 21075H   25282.44736868 -.00000048  00000+0 -15711-3 0  9994
2 49082  87.9088  55.7366 0001770  98.2265 261.9067 13.17649081200614
ONEWEB-0294             
1 49083U 21075J   25282.73786527 -.00000350  00000+0 -10085-2 0  9998
2 49083  87.8952  40.4057 0002167 106.5184 253.6182 13.12441692201728
ONEWEB-0295             
1 49084U 21075K   25282.82619360  .00000051  00000+0  98925-4 0  9996
2 49084  87.9092  55.6659 0001985  90.2010 269.9349 13.17650476200625
ONEWEB-0296             
1 49085U 21075L   25283.32831750  .00000362  00000+0  97174-3 0  9991
2 49085  87.8950  40.2935 0002232  94.6528 265.4856 13.12443266201800
ONEWEB-0297             
1 49086U 21075M   25283.28288001 -.00000298  00000+0 -86254-3 0  9999
2 49086  87.8937  40.3380 0001790  97.8136 262.3196 13.12442388202403
ONEWEB-0298             
1 49087U 21075N   25282.45088196 -.00000035  00000+0 -12428-3 0  9992
2 49087  87.9094  55.7353 0001642  95.3067 264.8251 13.17648378200602
ONEWEB-0299             
1 49088U 21075P   25282.30054161  .00000114  00000+0  25966-3 0  9999
2 49088  87.9099  55.7233 0001748  91.2613 268.8719 13.17647621200562
ONEWEB-0300             
1 49089U 21075Q   25282.35992214 -.00000376  00000+0 -10818-2 0  9996
2 49089  87.8949  40.4770 0001363  97.0408 263.0875 13.12442222202301
ONEWEB-0301             
1 49090U 21075R   25283.25855105  .00000150  00000+0  38225-3 0  9996
2 49090  87.8948  40.3015 0001258  95.0157 265.1116 13.12442499201783
ONEWEB-0302             
1 49091U 21075S   25283.32181774  .00000468  00000+0  12663-2 0  9998
2 49091  87.8954  40.2966 0002085 101.6149 258.5214 13.12443270201771
ONEWEB-0304             
1 49092U 21075T   25283.33835231  .00000075  00000+0  15965-3 0  9997
2 49092  87.9096  55.5473 0001807  93.2801 266.8537 13.17649264200678
ONEWEB-0305             
1 49093U 21075U   25283.33160767  .00000033  00000+0  51799-4 0  9993
2 49093  87.9098  55.5253 0001926  86.4419 273.6932 13.17649079200701
ONEWEB-0308             
1 49094U 21075V   25283.31533021  .00000434  00000+0  11705-2 0  9995
2 49094  87.8956  40.2902 0001686  99.6247 260.5072 13.12443782201781
ONEWEB-0309             
1 49095U 21075W   25283.33495685 -.00000162  00000+0 -44963-3 0  9994
2 49095  87.9098  55.5416 0002124 101.7014 258.4356 13.17647993200677
ONEWEB-0310             
1 49096U 21075X   25283.32992612  .00000352  00000+0  94217-3 0  9992
2 49096  87.8942  40.3290 0001804  97.8551 262.2782 13.12442647202416
ONEWEB-0311             
1 49097U 21075Y   25283.26579060  .00000050  00000+0  94715-4 0  9993
2 49097  87.9094  55.5523 0001815  85.4919 274.6420 13.17647096200713
ONEWEB-0312             
1 49098U 21075Z   25282.44566639  .00000006  00000+0 -17465-4 0  9990
2 49098  87.9089  55.7462 0002013  90.0400 270.0962 13.17647015200587
ONEWEB-0313             
1 49099U 21075AA  25282.83027298  .00000034  00000+0  54442-4 0  9993
2 49099  87.9080  55.6789 0001748  91.6635 268.4697 13.17647093200628
ONEWEB-0314             
1 49100U 21075AB  25283.32820730  .00000075  00000+0  15920-3 0  9995
2 49100  87.9101  55.5236 0002039  89.7325 270.4040 13.17646909200663
ONEWEB-0315             
1 49101U 21075AC  25283.30397614  .00000306  00000+0  81560-3 0  9994
2 49101  87.8950  40.2815 0001667  83.7457 276.3861 13.12443927202393
ONEWEB-0316             
1 49102U 21075AD  25283.22166470  .00000111  00000+0  24899-3 0  9996
2 49102  87.9230  25.1063 0001762  96.9430 263.1903 13.18684375204265
ONEWEB-0317             
1 49103U 21075AE  25283.29748355 -.00000019  00000+0 -87996-4 0  9999
2 49103  87.8946  40.2976 0002250 119.5790 240.5563 13.12443410202417
ONEWEB-0318             
1 49104U 21075AF  25283.29424316  .00000015  00000+0  62748-5 0  9991
2 49104  87.9231  25.0785 0001796  93.2164 266.9174 13.18683984204232
ONEWEB-0319             
1 49105U 21075AG  25283.26746707  .00000038  00000+0  65011-4 0  9990
2 49105  87.9090  55.5763 0001853  81.3393 278.7949 13.17647050200696
ONEWEB-0323             
1 49106U 21075AH  25283.28775120 -.00000304  00000+0 -88070-3 0  9991
2 49106  87.8952  40.2864 0002021  79.5311 280.6045 13.12444122201772
ONEWEB-0329             
1 49107U 21075AJ  25282.44061177  .00000062  00000+0  12766-3 0  9997
2 49107  87.9085  55.7439 0001841  93.8438 266.2904 13.17650864200565
ONEWEB-0330             
1 49108U 21075AK  25282.44145075  .00000009  00000+0 -10149-4 0  9994
2 49108  87.9091  55.7486 0001935  95.5152 264.6200 13.17650264200601
ONEWEB-0292             
1 49186U 21083A   25283.22687464  .00000317  00000+0  83213-3 0  9991
2 49186  87.9047   9.9338 0001779  95.1802 264.9530 13.13470585198112
ONEWEB-0303             
1 49187U 21083B   25283.21507829  .00000038  00000+0  64620-4 0  9999
2 49187  87.9230  25.0947 0001776  93.7755 266.3580 13.18686844197033
ONEWEB-0306             
1 49188U 21083C   25283.20518230 -.00000078  00000+0 -22961-3 0  9994
2 49188  87.9233  25.0822 0001910 106.3996 253.7346 13.18687241197073
ONEWEB-0307             
1 49189U 21083D   25283.22093202 -.00000431  00000+0 -12148-2 0  9992
2 49189  87.9034   9.9301 0001809 101.4787 258.6545 13.13470503198114
ONEWEB-0320             
1 49190U 21083E   25283.21182945  .00000080  00000+0  17049-3 0  9990
2 49190  87.9233  25.1092 0001720 101.1216 259.0109 13.18667215197034
ONEWEB-0321             
1 49191U 21083F   25283.12775907  .00000143  00000+0  31967-3 0  9992
2 49191  87.9229 324.2996 0001992 106.4590 253.6762 13.20770517203823
ONEWEB-0322             
1 49192U 21083G   25283.21672148  .00000104  00000+0  24920-3 0  9994
2 49192  87.9042   9.9299 0001761 117.3182 242.8127 13.13470824198101
ONEWEB-0324             
1 49193U 21083H   25283.19856744 -.00000264  00000+0 -70247-3 0  9990
2 49193  87.9231  25.0910 0001924 100.7219 259.4130 13.18685771197054
ONEWEB-0325             
1 49194U 21083J   25283.27776414  .00000052  00000+0  98219-4 0  9998
2 49194  87.9229  25.0931 0001749 103.0241 257.1087 13.18686505197075
ONEWEB-0326             
1 49195U 21083K   25283.29272701  .00000129  00000+0  29525-3 0  9999
2 49195  87.9231  25.0780 0001654  90.1302 270.0020 13.18688712197062
ONEWEB-0327             
1 49196U 21083L   25283.21659480  .00000028  00000+0  38349-4 0  9998
2 49196  87.9221  25.1174 0001540  89.2448 270.8861 13.18686460197074
